STARLINK-1989           
1 47585U 21009AP  25075.58334491  .00591802  14551-3  19713-2 0  9994
2 47585  53.0371 145.9028 0009816 317.2111 175.9882 15.89627666  6045
STARLINK-1991           
1 47587U 21009AR  25075.59705797  .00029684  00000+0  20018-2 0  9992
2 47587  53.0538 179.1561 0001626  71.1329 288.9836 15.06428589226962
STARLINK-1993           
1 47588U 21009AS  25075.52241470  .00010638  00000+0  73148-3 0  9991
2 47588  53.0536 189.4959 0001541  57.0883 303.0254 15.06424670226814
STARLINK-1994           
1 47589U 21009AT  25075.54084893  .00019507  00000+0  13237-2 0  9994
2 47589  53.0543 189.4106 0001406  81.1230 278.9918 15.06432766226813
STARLINK-1995           
1 47590U 21009AU  25075.59797385  .00005840  00000+0  41049-3 0  9996
2 47590  53.0559 209.1555 0001444  99.9174 260.1978 15.06413642226547
STARLINK-1997           
1 47592U 21009AW  25075.63482704  .00007150  00000+0  49823-3 0  9993
2 47592  53.0539 208.9830 0001510  89.3132 270.8029 15.06415732226548
STARLINK-2001           
1 47596U 21009BA  25075.62745906  .00014334  00000+0  97854-3 0  9991
2 47596  53.0528 209.0183 0000729  92.5529 267.5544 15.06425483226549
STARLINK-2002           
1 47597U 21009BB  25075.58334491  .00659578  18214-3  21002-2 0  9996
2 47597  53.0428 170.0073 0011592 307.3485 270.9562 15.90476918  5930
STARLINK-2003           
1 47598U 21009BC  25074.08626677  .01071790  61726-3  16779-2 0  9997
2 47598  53.0383 141.3713 0010247 334.6106 102.7352 16.03409548227971
STARLINK-2007           
1 47602U 21009BG  25075.58334491  .00337377  00000+0  35538-2 0  9992
2 47602  53.0381 135.2061 0010074   1.2051 148.9198 15.62607606228179
STARLINK-2021           
1 47604U 21009BJ  25075.58599293  .00026060  00000+0  17595-2 0  9994
2 47604  53.0544 179.2098 0001420 111.8539 248.2601 15.06451547227579
STARLINK-2024           
1 47606U 21009BL  25075.52333096  .00013169  00000+0  90056-3 0  9997
2 47606  53.0542 179.4848 0001624 109.2071 250.9094 15.06430492226955
STARLINK-2025           
1 47607U 21009BM  25074.04686814  .00823529  30565-3  20520-2 0  9993
2 47607  53.0380 139.9075 0010032 317.3349 112.8072 15.95183097227971
STARLINK-1609           
1 47621U 21012B   25075.44408211  .00000836  00000+0  75032-4 0  9996
2 47621  53.0551 239.8405 0001493 118.9138 241.2001 15.06400261225992
STARLINK-1645           
1 47622U 21012C   25074.77598016  .00002269  00000+0  17116-3 0  9995
2 47622  53.0531 242.8330 0001258  91.1496 268.9637 15.06404279225882
STARLINK-1655           
1 47623U 21012D   25075.58461581  .00016893  00000+0  11492-2 0  9990
2 47623  53.0540 174.2078 0001229  70.8422 289.2700 15.06433405226927
STARLINK-1669           
1 47624U 21012E   25075.57862058  .00010044  00000+0  69200-3 0  9997
2 47624  53.0539 219.2378 0001250  80.5783 279.5347 15.06413242226309
STARLINK-1704           
1 47625U 21012F   25075.44683943  .00009364  00000+0  64618-3 0  9999
2 47625  53.0537 239.8173 0001407  75.2593 284.8552 15.06430839225984
STARLINK-1761           
1 47626U 21012G   25075.56572997  .00005386  00000+0  38009-3 0  9994
2 47626  53.0534 239.2976 0001341  92.4491 267.6652 15.06409604226002
STARLINK-1972           
1 47627U 21012H   25075.57634434  .00005879  00000+0  41324-3 0  9992
2 47627  53.0542 144.2527 0001771  67.0675 293.0501 15.06400142227317
STARLINK-1973           
1 47628U 21012J   25075.60162860  .00001833  00000+0  14187-3 0  9999
2 47628  53.0528 239.1234 0001172  83.4741 276.6382 15.06407080226010
STARLINK-1974           
1 47629U 21012K   25075.58334491  .00953526  00000+0  13607-1 0  9997
2 47629  53.0524 111.7811 0001374  64.7625 140.0736 15.53322185  5881
STARLINK-1983           
1 47630U 21012L   25075.54176804  .00010710  00000+0  73658-3 0  9990
2 47630  53.0561 219.4905 0001225  90.1838 269.9291 15.06410181226264
STARLINK-1992           
1 47632U 21012N   25075.46850262  .00012389  00000+0  84975-3 0  9998
2 47632  53.0530 144.7339 0001423  60.7806 299.3325 15.06373369227308
STARLINK-2009           
1 47633U 21012P   25075.58334491  .00395101  00000+0  15784-2 0  9990
2 47633  53.0398 199.7979 0003328  13.6289 341.4497 15.84992579226055
STARLINK-2010           
1 47634U 21012Q   25075.46251746  .00001547  00000+0  12271-3 0  9996
2 47634  53.0534 239.7615 0001256  90.6946 269.4187 15.06404936225988
STARLINK-2013           
1 47636U 21012S   25075.62622016  .01124679  67228-3  19116-2 0  9994
2 47636  53.0358 169.3508 0010327 314.2783 190.1611 16.02037377226471
STARLINK-2015           
1 47638U 21012U   25075.48418612  .00007533  00000+0  52424-3 0  9994
2 47638  53.0534 144.6652 0001564 101.3751 258.7414 15.06389770227303
STARLINK-2019           
1 47641U 21012X   25075.46945598  .00017236  00000+0  11735-2 0  9994
2 47641  53.0527 144.7319 0001381  67.6178 292.4957 15.06390239227303
STARLINK-2022           
1 47643U 21012Z   25075.61179078  .00002116  00000+0  16086-3 0  9991
2 47643  53.0555 219.0921 0001414  83.2580 276.8570 15.06408990226297
STARLINK-2030           
1 47647U 21012AD  25074.90594630  .00001559  00000+0  12359-3 0  9990
2 47647  53.0545 242.2592 0001369 106.3705 253.7434 15.06389817225914
STARLINK-2031           
1 47648U 21012AE  25075.62653157  .00003411  00000+0  24771-3 0  9991
2 47648  53.0542 219.0262 0001290  77.4689 282.6444 15.06408550226302
STARLINK-2032           
1 47649U 21012AF  25075.56387433  .00011386  00000+0  78179-3 0  9997
2 47649  53.0540 219.3062 0000791 100.9671 259.1407 15.06410778225773
STARLINK-2033           
1 47650U 21012AG  25075.61547905  .00004137  00000+0  29633-3 0  9994
2 47650  53.0546 219.0731 0001468  91.3965 268.7192 15.06420787226287
STARLINK-2035           
1 47651U 21012AH  25073.89897894  .00591354  00000+0  19259-2 0  9992
2 47651  53.0509 231.4152 0001037 336.4733 126.1686 15.88702125225452
STARLINK-2036           
1 47652U 21012AJ  25075.60902327  .00002756  00000+0  20400-3 0  9996
2 47652  53.0551 239.0944 0001614 109.5672 250.5491 15.06368217226014
STARLINK-2038           
1 47654U 21012AL  25075.62186484  .00059694  00000+0  13316-2 0  9998
2 47654  53.0545 213.1624 0003436 208.2198 151.8622 15.43015168226385
STARLINK-2039           
1 47655U 21012AM  25075.60626127 -.00003032  00000+0 -18479-3 0  9993
2 47655  53.0534 239.1130 0001060  65.2839 294.8260 15.06390797226017
STARLINK-2040           
1 47656U 21012AN  25075.62284417  .00001096  00000+0  92439-4 0  9993
2 47656  53.0549 219.0392 0001360  72.5948 287.5189 15.06409849226294
STARLINK-2041           
1 47657U 21012AP  25075.62838041  .00001936  00000+0  14888-3 0  9996
2 47657  53.0536 239.0154 0001228  87.6184 272.4945 15.06388055226019
STARLINK-2043           
1 47659U 21012AR  25074.51893784  .00016627  00000+0  11327-2 0  9997
2 47659  53.0524 123.9988 0001371 111.3218 248.7917 15.06393497227502
STARLINK-2052           
1 47662U 21012AU  25075.56661539  .00002235  00000+0  16879-3 0  9996
2 47662  53.0542 219.2906 0001207  84.3179 275.7948 15.06416849226294
STARLINK-2053           
1 47663U 21012AV  25075.58334491  .01239252  00000+0  31732-1 0  9998
2 47663  53.0547 122.4475 0001220  77.1627 197.8329 15.36237609  5895
STARLINK-2058           
1 47667U 21012AZ  25075.46620887  .00007168  00000+0  49977-3 0  9996
2 47667  53.0540 239.7439 0001113  79.3399 280.7715 15.06389009225978
STARLINK-2059           
1 47668U 21012BA  25075.57004572 -.00005316  00000+0 -53873-4 0  9992
2 47668  53.0505 188.7936 0001648  66.1115 294.0070 15.61998754226728
STARLINK-2062           
1 47670U 21012BC  25073.58335648  .00694215  21347-3  17693-2 0  9994
2 47670  53.0452 186.5633 0006742 357.9894 112.9504 15.94806968225952
STARLINK-2065           
1 47672U 21012BE  25075.61643053  .00000499  00000+0  52424-4 0  9991
2 47672  53.0554 209.0678 0001211  87.7720 272.3407 15.06378896226411
STARLINK-2078           
1 47675U 21012BH  25075.11131546  .03163439  11840-4  15600-2 0  9997
2 47675  53.0358 177.4604 0005219 342.9921  79.6028 16.20243076226206
STARLINK-2083           
1 47676U 21012BJ  25075.39712165  .00006972  00000+0  48662-3 0  9991
2 47676  53.0523 110.0538 0001278  63.0256 297.0864 15.06391598227787
STARLINK-2095           
1 47679U 21012BM  25075.58354557  .00038610  00000+0  19371-2 0  9990
2 47679  53.0479 233.2393 0000728 340.9941  19.1025 15.16975595226107
STARLINK-2068           
1 47722U 21017A   25075.52660633  .00024728  00000+0  16722-2 0  9995
2 47722  53.0563   4.7143 0001331  99.1945 260.9195 15.06421688224001
STARLINK-2107           
1 47723U 21017B   25075.60075423  .00002104  00000+0  16014-3 0  9991
2 47723  53.0531 299.1424 0001281  87.7042 272.4094 15.06395215224893
STARLINK-2116           
1 47724U 21017C   25075.04048633  .00002332  00000+0  17540-3 0  9991
2 47724  53.0531 301.6597 0001288  66.6028 293.5096 15.06401457224770
STARLINK-2131           
1 47728U 21017G   25075.10038473  .00002630  00000+0  19560-3 0  9998
2 47728  53.0560  11.3846 0001363 108.2797 251.8340 15.06361206223874
STARLINK-2140           
1 47730U 21017J   25075.12296746  .00003353  00000+0  24396-3 0  9998
2 47730  53.0548  26.2934 0001495 102.7428 257.3728 15.06385532223613
STARLINK-2141           
1 47731U 21017K   25075.12895446  .00021601  00000+0  14654-2 0  9992
2 47731  53.0558  21.2558 0001469  84.9351 275.1805 15.06380234223695
STARLINK-2142           
1 47732U 21017L   25074.90275115 -.00001536  00000+0 -84250-4 0  9991
2 47732  53.0537 297.5149 0001226  90.4128 269.7002 15.06391225224840
STARLINK-2143           
1 47733U 21017M   25075.18331812  .00002200  00000+0  16654-3 0  9999
2 47733  53.0559  31.0056 0001524  97.0086 263.1077 15.06396525223601
STARLINK-2144           
1 47734U 21017N   25075.13632690  .00007330  00000+0  51042-3 0  9992
2 47734  53.0566  21.2238 0001479  84.7299 275.3859 15.06404257223707
